FLOCK 4G-4              
1 62659U 25009BC  26068.75333732  .00011866  00000+0  45294-3 0  9997
2 62659  97.3994 150.7963 0001598 343.4316  16.6870 15.26803327121323
STARLINK-33776          
1 63851U 25093R   26068.42289423  .00039874  00000+0  14490-2 0  9998
2 63851  43.0043  79.2097 0002059 260.6442  99.4177 15.27618549 47920
